NORAD_CAT_ID,OBJECT_NAME,OBJECT_TYPE,EPOCH,MEAN_MOTION,ECCENTRICITY,INCLINATION,RA_OF_ASC_NODE,ARG_OF_PERICENTER,MEAN_ANOMALY,BSTAR,MEAN_MOTION_DOT,MEAN_MOTION_DDOT,TLE_LINE0,TLE_LINE1,TLE_LINE2,SEMIMAJOR_AXIS,PERIOD,APOGEE,PERIGEE,DECAYED
51894.0,STARLINK-3595,PAYLOAD,2022-08-17 16:00:00,15.08876201,0.0001853,53.2188,75.143,66.8439,42.6584,-0.0037196999999999,-0.00059061,0.0,0 STARLINK-3595,1 51894U 22022AU  22229.66667824 -.00059061  00000-0 -37197-2 0  9999,2 51894  53.2188  75.1430 0001853  66.8439  42.6584 15.08876201  1300,6917.77,95.435,540.9169999999998,538.3530000000002,0.0
51894.0,STARLINK-3595,PAYLOAD,2022-08-18 08:00:01,15.08840706,0.0001753,53.2193,72.1503,64.3345,68.3817,0.0011140999999999,0.00017488,0.0,0 STARLINK-3595,1 51894U 22022AU  22230.33334491  .00017488  00000-0  11141-2 0  9992,2 51894  53.2193  72.1503 0001753  64.3345  68.3817 15.08840706 27147,6917.878000000002,95.438,540.956,538.531,0.0
51894.0,STARLINK-3595,PAYLOAD,2022-08-18 14:00:01,15.08860361,0.0001764,53.2195,71.0279,67.047,344.3661,0.00052337,8.056e-05,0.0,0 STARLINK-3595,1 51894U 22022AU  22230.58334491  .00008056  00000-0  52337-3 0  9993,2 51894  53.2195  71.0279 0001764  67.0470 344.3661 15.08860361  1301,6917.818,95.436,540.903,538.4630000000002,0.0
51894.0,STARLINK-3595,PAYLOAD,2022-08-18 22:00:00,15.08838325,0.0001831999999999,53.2195,69.5333,59.917,3.1211,0.00017409,2.484e-05,0.0,0 STARLINK-3595,1 51894U 22022AU  22230.91667824  .00002484  00000-0  17409-3 0  9999,2 51894  53.2195  69.5333 0001832  59.9170   3.1211 15.08838325  1303,6917.886,95.438,541.018,538.4830000000002,0.0
51894.0,STARLINK-3595,PAYLOAD,2022-08-19 06:00:00,15.08865,0.0001654,53.2195,68.0357,60.8002,13.8293,-0.0044857,-0.00071023,0.0,0 STARLINK-3595,1 51894U 22022AU  22231.25001157 -.00071023  00000-0 -44857-2 0  9991,2 51894  53.2195  68.0357 0001654  60.8002  13.8293 15.08865000 27283,6917.804,95.436,540.813,538.525,0.0
51894.0,STARLINK-3595,PAYLOAD,2022-08-19 14:00:01,15.08836795,0.0001585,53.2198,66.5391,64.0446,22.1963,-0.00031681,-5.326e-05,0.0,0 STARLINK-3595,1 51894U 22022AU  22231.58334491 -.00005326  00000-0 -31681-3 0  9992,2 51894  53.2198  66.5391 0001585  64.0446  22.1963 15.08836795  1309,6917.89,95.438,540.852,538.659,0.0
51894.0,STARLINK-3595,PAYLOAD,2022-08-19 16:00:00,15.08854647,0.0001597,53.2199,66.1656,62.2556,116.8781,-0.0032454,-0.0005159,0.0,0 STARLINK-3595,1 51894U 22022AU  22231.66667824 -.00051590  00000-0 -32454-2 0  9992,2 51894  53.2199  66.1656 0001597  62.2556 116.8781 15.08854647 27342,6917.8359999999975,95.437,540.805,538.596,0.0
51894.0,STARLINK-3595,PAYLOAD,2022-08-19 22:00:00,15.08805741,0.0001649,53.2198,65.0446,55.7603,42.0739,0.00043637,6.657e-05,0.0,0 STARLINK-3595,1 51894U 22022AU  22231.91667824  .00006657  00000-0  43637-3 0  9998,2 51894  53.2198  65.0446 0001649  55.7603  42.0739 15.08805741  1306,6917.985,95.44,540.991,538.7090000000002,0.0
51894.0,STARLINK-3595,PAYLOAD,2022-08-20 14:00:01,15.0882414,0.0001488,53.2198,62.0507,64.1303,56.8146,-7.644e-06,-4.1e-06,0.0,0 STARLINK-3595,1 51894U 22022AU  22232.58334491 -.00000410  00000-0 -76440-5 0  9996,2 51894  53.2198  62.0507 0001488  64.1303  56.8146 15.08824140  1302,6917.929,95.439,540.823,538.764,0.0
51894.0,STARLINK-3595,PAYLOAD,2022-08-20 22:00:00,15.08803694,0.00016,53.2196,60.5562,56.0741,76.4507,0.0021097,0.00033414,0.0,0 STARLINK-3595,1 51894U 22022AU  22232.91667824  .00033414  00000-0  21097-2 0  9995,2 51894  53.2196  60.5562 0001600  56.0741  76.4507 15.08803694  1306,6917.991,95.44,540.9630000000002,538.749,0.0
51894.0,STARLINK-3595,PAYLOAD,2022-08-21 14:00:01,15.08839054,0.0001492,53.2194,57.5623,65.737,89.9229,-0.00056022,-9.193e-05,0.0,0 STARLINK-3595,1 51894U 22022AU  22233.58334491 -.00009193  00000-0 -56022-3 0  9996,2 51894  53.2194  57.5623 0001492  65.7370  89.9229 15.08839054  1301,6917.8830000000025,95.438,540.78,538.716,0.0
51894.0,STARLINK-3595,PAYLOAD,2022-08-21 22:00:00,15.08811161,0.0001599,53.2191,56.0676,57.1312,110.1234,0.0024883,0.00039504,0.0,0 STARLINK-3595,1 51894U 22022AU  22233.91667824  .00039504  00000-0  24883-2 0  9998,2 51894  53.2191  56.0676 0001599  57.1312 110.1234 15.08811161 27680,6917.969,95.439,540.94,538.727,0.0
51894.0,STARLINK-3595,PAYLOAD,2022-08-22 12:00:00,15.08834645,0.0001511,53.2189,53.4472,67.4882,30.0354,0.0011537,0.00018118,0.0,0 STARLINK-3595,1 51894U 22022AU  22234.50001157  .00018118  00000-0  11537-2 0  9995,2 51894  53.2189  53.4472 0001511  67.4882  30.0354 15.08834645  1308,6917.897,95.438,540.807,538.716,0.0
51894.0,STARLINK-3595,PAYLOAD,2022-08-22 22:00:00,15.08819721,0.0001626999999999,53.2188,51.5788,57.4383,144.5881,0.0028445,0.00045248,0.0,0 STARLINK-3595,1 51894U 22022AU  22234.91667824  .00045248  00000-0  28445-2 0  9999,2 51894  53.2188  51.5788 0001627  57.4383 144.5881 15.08819721  1303,6917.941999999999,95.439,540.933,538.682,0.0
51894.0,STARLINK-3595,PAYLOAD,2022-08-23 06:00:00,15.08841643,0.0001505,53.2187,50.0807,62.8458,150.7737,0.00017918,2.565e-05,0.0,0 STARLINK-3595,1 51894U 22022AU  22235.25001157  .00002565  00000-0  17918-3 0  9997,2 51894  53.2187  50.0807 0001505  62.8458 150.7737 15.08841643 27884,6917.875,95.437,540.7819999999998,538.6990000000002,0.0
51894.0,STARLINK-3595,PAYLOAD,2022-08-23 14:00:01,15.08861058,0.0001579,53.2186,48.5843,66.1206,159.0922,-0.0011951,-0.00019269,0.0,0 STARLINK-3595,1 51894U 22022AU  22235.58334491 -.00019269  00000-0 -11951-2 0  9994,2 51894  53.2186  48.5843 0001579  66.1206 159.0922 15.08861058  1303,6917.816,95.436,540.773,538.589,0.0
51894.0,STARLINK-3595,PAYLOAD,2022-08-23 22:00:01,15.0882845,0.0001676999999999,53.2187,47.0896,57.2758,179.6198,0.0030046,0.0004784,0.0,0 STARLINK-3595,1 51894U 22022AU  22235.91668981  .00047840  00000-0  30046-2 0  9995,2 51894  53.2187  47.0896 0001677  57.2758 179.6198 15.08828450  1300,6917.916,95.438,540.941,538.621,0.0
51894.0,STARLINK-3595,PAYLOAD,2022-08-24 14:00:01,15.08872021,0.0001698,53.2189,44.0954,65.7644,194.2808,-0.0036889,-0.00058571,0.0,0 STARLINK-3595,1 51894U 22022AU  22236.58334491 -.00058571  00000-0 -36889-2 0  9991,2 51894  53.2189  44.0954 0001698  65.7644 194.2808 15.08872021  1309,6917.783,95.436,540.822,538.4730000000002,0.0
51894.0,STARLINK-3595,PAYLOAD,2022-08-24 16:00:00,15.08857211,0.0001754,53.2189,43.7218,63.3069,289.646,-0.0028396,-0.00045219,0.0,0 STARLINK-3595,1 51894U 22022AU  22236.66667824 -.00045219  00000-0 -28396-2 0  9998,2 51894  53.2189  43.7218 0001754  63.3069 289.6460 15.08857211 28098,6917.828,95.436,540.906,538.479,0.0
51894.0,STARLINK-3595,PAYLOAD,2022-08-24 22:00:00,15.08811989,0.0001829,53.219,42.6004,59.2233,212.4346,0.0029221,0.00046489,0.0,0 STARLINK-3595,1 51894U 22022AU  22236.91667824  .00046489  00000-0  29221-2 0  9992,2 51894  53.2190  42.6004 0001829  59.2233 212.4346 15.08811989  1305,6917.965999999999,95.439,541.096,538.566,0.0
51894.0,STARLINK-3595,PAYLOAD,2022-08-25 06:00:02,15.0882611,0.000171,53.2193,41.1021,64.8953,218.4157,0.0012760999999999,0.00020072,0.0,0 STARLINK-3595,1 51894U 22022AU  22237.25002315  .00020072  00000-0  12761-2 0  9999,2 51894  53.2193  41.1021 0001710  64.8953 218.4157 15.08826110 28184,6917.9230000000025,95.438,540.971,538.605,0.0
51894.0,STARLINK-3595,PAYLOAD,2022-08-25 14:00:01,15.08858226,0.0001774999999999,53.2194,39.6063,65.8426,228.9892,-0.0014519,-0.00023332,0.0,0 STARLINK-3595,1 51894U 22022AU  22237.58334491 -.00023332  00000-0 -14519-2 0  9995,2 51894  53.2194  39.6063 0001775  65.8426 228.9892 15.08858226  1300,6917.825,95.436,540.918,538.462,0.0
51894.0,STARLINK-3595,PAYLOAD,2022-08-25 22:00:00,15.08831793,0.0001823,53.2194,38.1111,59.034,247.4082,0.0020792,0.0003295,0.0,0 STARLINK-3595,1 51894U 22022AU  22237.91667824  .00032950  00000-0  20792-2 0  9995,2 51894  53.2194  38.1111 0001823  59.0340 247.4082 15.08831793  1309,6917.905,95.438,541.0319999999998,538.509,0.0
51894.0,STARLINK-3595,PAYLOAD,2022-08-26 06:00:00,15.08825315,0.0001644,53.2197,36.613,64.8984,253.1522,0.00010444,1.374e-05,0.0,0 STARLINK-3595,1 51894U 22022AU  22238.25001157  .00001374  00000-0  10444-3 0  9994,2 51894  53.2197  36.6130 0001644  64.8984 253.1522 15.08825315 28333,6917.925,95.438,540.928,538.653,0.0
51894.0,STARLINK-3595,PAYLOAD,2022-08-26 14:00:01,15.08841828,0.0001664,53.2199,35.1172,64.0617,265.6105,-0.00164,-0.00026295,0.0,0 STARLINK-3595,1 51894U 22022AU  22238.58335648 -.00026295  00000-0 -16400-2 0  9993,2 51894  53.2199  35.1172 0001664  64.0617 265.6105 15.08841828  1302,6917.875,95.437,540.891,538.589,0.0
51894.0,STARLINK-3595,PAYLOAD,2022-08-26 22:00:00,15.08815489,0.0001726,53.2197,33.622,57.5141,283.6857,0.002306,0.00036578,0.0,0 STARLINK-3595,1 51894U 22022AU  22238.91667824  .00036578  00000-0  23060-2 0  9997,2 51894  53.2197  33.6220 0001726  57.5141 283.6857 15.08815489  1303,6917.955,95.439,541.014,538.626,0.0
51894.0,STARLINK-3595,PAYLOAD,2022-08-27 14:00:01,15.08855921,0.0001641,53.2202,30.6285,64.2779,300.0874,-0.0017472,-0.00027999,0.0,0 STARLINK-3595,1 51894U 22022AU  22239.58334491 -.00027999  00000-0 -17472-2 0  9991,2 51894  53.2202  30.6285 0001641  64.2779 300.0874 15.08855921  1304,6917.831999999999,95.437,540.832,538.562,0.0
51894.0,STARLINK-3595,PAYLOAD,2022-08-27 22:00:00,15.08832795,0.000168,53.2199,29.13300000000001,58.0945,317.8755,0.0018946999999999,0.00029989,0.0,0 STARLINK-3595,1 51894U 22022AU  22239.91667824  .00029989  00000-0  18947-2 0  9994,2 51894  53.2199  29.1330 0001680  58.0945 317.8755 15.08832795  1300,6917.901999999999,95.438,540.93,538.605,0.0
51894.0,STARLINK-3595,PAYLOAD,2022-08-28 06:00:00,15.08827409,0.0001519,53.22,27.6351,66.5639,321.0158,0.0028344999999999,0.00045096,0.0,0 STARLINK-3595,1 51894U 22022AU  22240.25001157  .00045096  00000-0  28345-2 0  9994,2 51894  53.2200  27.6351 0001519  66.5639 321.0158 15.08827409 28640,6917.919,95.438,540.835,538.7330000000002,0.0
